[Satellite]
VERSION=1.1
NAME=GALAXY 31
NICKNAME=GALAXY 31
TLE1=1 54243U 22153A   22342.52582712  .00000147  00000+0  00000+0 0  9996
TLE2=2 54243   0.0474 138.5971 0002234 163.3019 175.7214  1.00271962   244
STATUS=0
